[
    {
        "Altitude(m)": 568384.9396887043,
        "Argument of Periapsis(deg)": 0.006622991110713501,
        "Eccentricity": 0.0,
        "Inclination(deg)": 53.0,
        "Latitude(deg)": -44.50123913468389,
        "Longitude(deg)": 56.661488561534064,
        "Mean Anomaly(deg)": -118.99930713242235,
        "RAAN(deg)": 289.99014336852804,
        "Satellite Name": "Starlink Shell 1 1290",
        "Satellite Number": 1290,
        "Semi-Major Axis(m)": 6931778.249405717,
        "Time(s)": 190
    },
    {
        "Altitude(m)": 568522.8928982213,
        "Argument of Periapsis(deg)": 0.0069715695902247375,
        "Eccentricity": 0.0,
        "Inclination(deg)": 53.0,
        "Latitude(deg)": -44.83707422276995,
        "Longitude(deg)": 57.360107524319524,
        "Mean Anomaly(deg)": -118.37247592886574,
        "RAAN(deg)": 289.9896245984506,
        "Satellite Name": "Starlink Shell 1 1290",
        "Satellite Number": 1290,
        "Semi-Major Axis(m)": 6931778.249405717,
        "Time(s)": 200
    },
    {
        "Altitude(m)": 568658.6839069193,
        "Argument of Periapsis(deg)": 0.007320148069735974,
        "Eccentricity": 0.0,
        "Inclination(deg)": 53.0,
        "Latitude(deg)": -45.168035575713034,
        "Longitude(deg)": 58.067287765348055,
        "Mean Anomaly(deg)": -117.74564472530896,
        "RAAN(deg)": 289.9891058283731,
        "Satellite Name": "Starlink Shell 1 1290",
        "Satellite Number": 1290,
        "Semi-Major Axis(m)": 6931778.249405717,
        "Time(s)": 210
    },
    {
        "Altitude(m)": 568792.2591874634,
        "Argument of Periapsis(deg)": 0.007668726549247212,
        "Eccentricity": 0.0,
        "Inclination(deg)": 53.0,
        "Latitude(deg)": -45.494011575786836,
        "Longitude(deg)": 58.783099715499766,
        "Mean Anomaly(deg)": -117.11881352175216,
        "RAAN(deg)": 289.98858705829565,
        "Satellite Name": "Starlink Shell 1 1290",
        "Satellite Number": 1290,
        "Semi-Major Axis(m)": 6931778.249405717,
        "Time(s)": 220
    },
    {
        "Altitude(m)": 568923.5660505674,
        "Argument of Periapsis(deg)": 0.00801730502875845,
        "Eccentricity": 0.0,
        "Inclination(deg)": 53.0,
        "Latitude(deg)": -45.814889087155464,
        "Longitude(deg)": 59.507607523899026,
        "Mean Anomaly(deg)": -116.49198231819555,
        "RAAN(deg)": 289.9880682882182,
        "Satellite Name": "Starlink Shell 1 1290",
        "Satellite Number": 1290,
        "Semi-Major Axis(m)": 6931778.249405717,
        "Time(s)": 230
    },
    {
        "Altitude(m)": 569052.5526681418,
        "Argument of Periapsis(deg)": 0.008365883508269684,
        "Eccentricity": 0.0,
        "Inclination(deg)": 53.0,
        "Latitude(deg)": -46.13055352625351,
        "Longitude(deg)": 60.240869070594435,
        "Mean Anomaly(deg)": -115.86515111463876,
        "RAAN(deg)": 289.98754951814067,
        "Satellite Name": "Starlink Shell 1 1290",
        "Satellite Number": 1290,
        "Semi-Major Axis(m)": 6931778.249405717,
        "Time(s)": 240
    },
    {
        "Altitude(m)": 569179.1680960397,
        "Argument of Periapsis(deg)": 0.008714461987780921,
        "Eccentricity": 0.0,
        "Inclination(deg)": 53.0,
        "Latitude(deg)": -46.44088894089236,
        "Longitude(deg)": 60.98293445257222,
        "Mean Anomaly(deg)": -115.2383199110821,
        "RAAN(deg)": 289.9870307480632,
        "Satellite Name": "Starlink Shell 1 1290",
        "Satellite Number": 1290,
        "Semi-Major Axis(m)": 6931778.249405717,
        "Time(s)": 250
    },
    {
        "Altitude(m)": 569303.3622964052,
        "Argument of Periapsis(deg)": 0.009063040467292158,
        "Eccentricity": 0.0,
        "Inclination(deg)": 53.0,
        "Latitude(deg)": -46.74577809847686,
        "Longitude(deg)": 61.733845970292236,
        "Mean Anomaly(deg)": -114.61148870752538,
        "RAAN(deg)": 289.98651197798574,
        "Satellite Name": "Starlink Shell 1 1290",
        "Satellite Number": 1290,
        "Semi-Major Axis(m)": 6931778.249405717,
        "Time(s)": 260
    },
    {
        "Altitude(m)": 569425.086159614,
        "Argument of Periapsis(deg)": 0.009411618946803396,
        "Eccentricity": 0.0,
        "Inclination(deg)": 53.0,
        "Latitude(deg)": -47.04510258369841,
        "Longitude(deg)": 62.49363810356368,
        "Mean Anomaly(deg)": -113.98465750396868,
        "RAAN(deg)": 289.9859932079083,
        "Satellite Name": "Starlink Shell 1 1290",
        "Satellite Number": 1290,
        "Semi-Major Axis(m)": 6931778.249405717,
        "Time(s)": 270
    },
    {
        "Altitude(m)": 569544.2915257796,
        "Argument of Periapsis(deg)": 0.009760197426314633,
        "Eccentricity": 0.0,
        "Inclination(deg)": 53.0,
        "Latitude(deg)": -47.338742906048026,
        "Longitude(deg)": 63.26233596584226,
        "Mean Anomaly(deg)": -113.35782630041201,
        "RAAN(deg)": 289.98547443783076,
        "Satellite Name": "Starlink Shell 1 1290",
        "Satellite Number": 1290,
        "Semi-Major Axis(m)": 6931778.249405717,
        "Time(s)": 280
    },
    {
        "Altitude(m)": 569660.9312058567,
        "Argument of Periapsis(deg)": 0.01010877590582587,
        "Eccentricity": 0.0,
        "Inclination(deg)": 53.0,
        "Latitude(deg)": -47.6265786174581,
        "Longitude(deg)": 64.03995526491053,
        "Mean Anomaly(deg)": -112.73099509685518,
        "RAAN(deg)": 289.98495566775335,
        "Satellite Name": "Starlink Shell 1 1290",
        "Satellite Number": 1290,
        "Semi-Major Axis(m)": 6931778.249405717,
        "Time(s)": 290
    },
    {
        "Altitude(m)": 569774.9590022692,
        "Argument of Periapsis(deg)": 0.010457354385337106,
        "Eccentricity": 0.0,
        "Inclination(deg)": 53.0,
        "Latitude(deg)": -47.908488440347824,
        "Longitude(deg)": 64.82650225956844,
        "Mean Anomaly(deg)": -112.10416389329852,
        "RAAN(deg)": 289.98443689767583,
        "Satellite Name": "Starlink Shell 1 1290",
        "Satellite Number": 1290,
        "Semi-Major Axis(m)": 6931778.249405717,
        "Time(s)": 300
    },
    {
        "Altitude(m)": 569886.3297291462,
        "Argument of Periapsis(deg)": 0.010805932864848343,
        "Eccentricity": 0.0,
        "Inclination(deg)": 53.0,
        "Latitude(deg)": -48.18435040630729,
        "Longitude(deg)": 65.62197220225273,
        "Mean Anomaly(deg)": -111.47733268974184,
        "RAAN(deg)": 289.9839181275984,
        "Satellite Name": "Starlink Shell 1 1290",
        "Satellite Number": 1290,
        "Semi-Major Axis(m)": 6931778.249405717,
        "Time(s)": 310
    },
    {
        "Altitude(m)": 569994.9992320472,
        "Argument of Periapsis(deg)": 0.01115451134435958,
        "Eccentricity": 0.0,
        "Inclination(deg)": 53.0,
        "Latitude(deg)": -48.45404200559721,
        "Longitude(deg)": 66.42634929639524,
        "Mean Anomaly(deg)": -110.850501486185,
        "RAAN(deg)": 289.9833993575209,
        "Satellite Name": "Starlink Shell 1 1290",
        "Satellite Number": 1290,
        "Semi-Major Axis(m)": 6931778.249405717,
        "Time(s)": 320
    },
    {
        "Altitude(m)": 570100.9244072618,
        "Argument of Periapsis(deg)": 0.011503089823870818,
        "Eccentricity": 0.0,
        "Inclination(deg)": 53.0,
        "Latitude(deg)": -48.717440347592095,
        "Longitude(deg)": 67.23960665901178,
        "Mean Anomaly(deg)": -110.22367028262833,
        "RAAN(deg)": 289.9828805874434,
        "Satellite Name": "Starlink Shell 1 1290",
        "Satellite Number": 1290,
        "Semi-Major Axis(m)": 6931778.249405717,
        "Time(s)": 330
    },
    {
        "Altitude(m)": 570204.0632206333,
        "Argument of Periapsis(deg)": 0.011851668303382053,
        "Eccentricity": 0.0,
        "Inclination(deg)": 53.0,
        "Latitude(deg)": -48.974422332229786,
        "Longitude(deg)": 68.06170477930053,
        "Mean Anomaly(deg)": -109.59683907907166,
        "RAAN(deg)": 289.982361817366,
        "Satellite Name": "Starlink Shell 1 1290",
        "Satellite Number": 1290,
        "Semi-Major Axis(m)": 6931778.249405717,
        "Time(s)": 340
    },
    {
        "Altitude(m)": 570304.3747258976,
        "Argument of Periapsis(deg)": 0.012200246782893292,
        "Eccentricity": 0.0,
        "Inclination(deg)": 53.0,
        "Latitude(deg)": -49.224864832453044,
        "Longitude(deg)": 68.89259150290195,
        "Mean Anomaly(deg)": -108.97000787551494,
        "RAAN(deg)": 289.9818430472885,
        "Satellite Name": "Starlink Shell 1 1290",
        "Satellite Number": 1290,
        "Semi-Major Axis(m)": 6931778.249405717,
        "Time(s)": 350
    },
    {
        "Altitude(m)": 570401.8190825483,
        "Argument of Periapsis(deg)": 0.012548825262404526,
        "Eccentricity": 0.0,
        "Inclination(deg)": 53.0,
        "Latitude(deg)": -49.468644887557424,
        "Longitude(deg)": 69.73220203313383,
        "Mean Anomaly(deg)": -108.34317667195826,
        "RAAN(deg)": 289.981324277211,
        "Satellite Name": "Starlink Shell 1 1290",
        "Satellite Number": 1290,
        "Semi-Major Axis(m)": 6931778.249405717,
        "Time(s)": 360
    },
    {
        "Altitude(m)": 570496.3575731962,
        "Argument of Periapsis(deg)": 0.012897403741915765,
        "Eccentricity": 0.0,
        "Inclination(deg)": 53.0,
        "Latitude(deg)": -49.705639907273124,
        "Longitude(deg)": 70.58045744074687,
        "Mean Anomaly(deg)": -107.71634546840149,
        "RAAN(deg)": 289.98080550713354,
        "Satellite Name": "Starlink Shell 1 1290",
        "Satellite Number": 1290,
        "Semi-Major Axis(m)": 6931778.249405717,
        "Time(s)": 370
    }
]